[Satellite]
VERSION=1.1
NAME=ARGOS
NICKNAME=ARGOS
TLE1=1 25634U 99008A   11060.05293688  .00000066  00000-0  53521-4 0  2406
TLE2=2 25634  98.9235 114.5285 0010182 337.4137  22.6610 14.18946933622234
